[
  {
    "COMMENT": "GENERATED VIA SPACETRACK.ORG API",
    "ORIGINATOR": "18 SPCS",
    "NORAD_CAT_ID": "33105",
    "OBJECT_NAME": "JASON 2",
    "OBJECT_TYPE": "PAYLOAD",
    "CLASSIFICATION_TYPE": "U",
    "INTLDES": "08032A",
    "EPOCH": "2023-06-07 22:13:15",
    "EPOCH_MICROSECONDS": "218976",
    "MEAN_MOTION": "12.87659951",
    "ECCENTRICITY": "0.000831",
    "INCLINATION": "66.0392",
    "RA_OF_ASC_NODE": "214.9182",
    "ARG_OF_PERICENTER": "270.0885",
    "MEAN_ANOMALY": "262.7206",
    "EPHEMERIS_TYPE": "0",
    "ELEMENT_SET_NO": "999",
    "REV_AT_EPOCH": "70148",
    "BSTAR": "0.000093052",
    "MEAN_MOTION_DOT": "-0.00000039",
    "MEAN_MOTION_DDOT": "0",
    "FILE": "3927493",
    "TLE_LINE0": "0 JASON 2",
    "TLE_LINE1": "1 33105U 08032A   23158.92587059 -.00000039  00000-0  93052-4 0  9995",
    "TLE_LINE2": "2 33105  66.0392 214.9182 0008310 270.0885 262.7206 12.87659951701487",
    "OBJECT_ID": "2008-032A",
    "OBJECT_NUMBER": "33105",
    "SEMIMAJOR_AXIS": "7688.962",
    "PERIOD": "111.831",
    "APOGEE": "1317.217",
    "PERIGEE": "1304.437",
    "DECAYED": "0"
  },
  {
    "COMMENT": "GENERATED VIA SPACETRACK.ORG API",
    "ORIGINATOR": "18 SPCS",
    "NORAD_CAT_ID": "33105",
    "OBJECT_NAME": "JASON 2",
    "OBJECT_TYPE": "PAYLOAD",
    "CLASSIFICATION_TYPE": "U",
    "INTLDES": "08032A",
    "EPOCH": "2023-06-08 12:47:56",
    "EPOCH_MICROSECONDS": "60736",
    "MEAN_MOTION": "12.87659935",
    "ECCENTRICITY": "0.0008323",
    "INCLINATION": "66.039",
    "RA_OF_ASC_NODE": "213.641",
    "ARG_OF_PERICENTER": "270.0013",
    "MEAN_ANOMALY": "198.2582",
    "EPHEMERIS_TYPE": "0",
    "ELEMENT_SET_NO": "999",
    "REV_AT_EPOCH": "70147",
    "BSTAR": "0.000067179",
    "MEAN_MOTION_DOT": "-0.00000045",
    "MEAN_MOTION_DDOT": "0",
    "FILE": "3928007",
    "TLE_LINE0": "0 JASON 2",
    "TLE_LINE1": "1 33105U 08032A   23159.53328774 -.00000045  00000-0  67179-4 0  9998",
    "TLE_LINE2": "2 33105  66.0390 213.6410 0008323 270.0013 198.2582 12.87659935701473",
    "OBJECT_ID": "2008-032A",
    "OBJECT_NUMBER": "33105",
    "SEMIMAJOR_AXIS": "7688.962",
    "PERIOD": "111.831",
    "APOGEE": "1317.227",
    "PERIGEE": "1304.428",
    "DECAYED": "0"
  },
  {
    "COMMENT": "GENERATED VIA SPACETRACK.ORG API",
    "ORIGINATOR": "18 SPCS",
    "NORAD_CAT_ID": "33105",
    "OBJECT_NAME": "JASON 2",
    "OBJECT_TYPE": "PAYLOAD",
    "CLASSIFICATION_TYPE": "U",
    "INTLDES": "08032A",
    "EPOCH": "2023-06-09 09:09:09",
    "EPOCH_MICROSECONDS": "866016",
    "MEAN_MOTION": "12.87659971",
    "ECCENTRICITY": "0.0008318",
    "INCLINATION": "66.0389",
    "RA_OF_ASC_NODE": "211.8579",
    "ARG_OF_PERICENTER": "269.9952",
    "MEAN_ANOMALY": "169.1993",
    "EPHEMERIS_TYPE": "0",
    "ELEMENT_SET_NO": "999",
    "REV_AT_EPOCH": "70158",
    "BSTAR": "0.000053398",
    "MEAN_MOTION_DOT": "-0.00000049",
    "MEAN_MOTION_DDOT": "0",
    "FILE": "3928876",
    "TLE_LINE0": "0 JASON 2",
    "TLE_LINE1": "1 33105U 08032A   23160.38136419 -.00000049  00000-0  53398-4 0  9998",
    "TLE_LINE2": "2 33105  66.0389 211.8579 0008318 269.9952 169.1993 12.87659971701585",
    "OBJECT_ID": "2008-032A",
    "OBJECT_NUMBER": "33105",
    "SEMIMAJOR_AXIS": "7688.962",
    "PERIOD": "111.831",
    "APOGEE": "1317.223",
    "PERIGEE": "1304.431",
    "DECAYED": "0"
  },
  {
    "COMMENT": "GENERATED VIA SPACETRACK.ORG API",
    "ORIGINATOR": "18 SPCS",
    "NORAD_CAT_ID": "33105",
    "OBJECT_NAME": "JASON 2",
    "OBJECT_TYPE": "PAYLOAD",
    "CLASSIFICATION_TYPE": "U",
    "INTLDES": "08032A",
    "EPOCH": "2023-06-09 20:49:09",
    "EPOCH_MICROSECONDS": "882336",
    "MEAN_MOTION": "12.87659999",
    "ECCENTRICITY": "0.0008323",
    "INCLINATION": "66.0388",
    "RA_OF_ASC_NODE": "210.8358",
    "ARG_OF_PERICENTER": "270.0392",
    "MEAN_ANOMALY": "262.3387",
    "EPHEMERIS_TYPE": "0",
    "ELEMENT_SET_NO": "999",
    "REV_AT_EPOCH": "70164",
    "BSTAR": "0.000047506",
    "MEAN_MOTION_DOT": "-0.0000005",
    "MEAN_MOTION_DDOT": "0",
    "FILE": "3929125",
    "TLE_LINE0": "0 JASON 2",
    "TLE_LINE1": "1 33105U 08032A   23160.86747549 -.00000050  00000-0  47506-4 0  9999",
    "TLE_LINE2": "2 33105  66.0388 210.8358 0008323 270.0392 262.3387 12.87659999701645",
    "OBJECT_ID": "2008-032A",
    "OBJECT_NUMBER": "33105",
    "SEMIMAJOR_AXIS": "7688.962",
    "PERIOD": "111.831",
    "APOGEE": "1317.226",
    "PERIGEE": "1304.427",
    "DECAYED": "0"
  },
  {
    "COMMENT": "GENERATED VIA SPACETRACK.ORG API",
    "ORIGINATOR": "18 SPCS",
    "NORAD_CAT_ID": "33105",
    "OBJECT_NAME": "JASON 2",
    "OBJECT_TYPE": "PAYLOAD",
    "CLASSIFICATION_TYPE": "U",
    "INTLDES": "08032A",
    "EPOCH": "2023-06-10 03:30:04",
    "EPOCH_MICROSECONDS": "431168",
    "MEAN_MOTION": "12.87660054",
    "ECCENTRICITY": "0.0008335",
    "INCLINATION": "66.0387",
    "RA_OF_ASC_NODE": "210.2504",
    "ARG_OF_PERICENTER": "270.0053",
    "MEAN_ANOMALY": "112.8324",
    "EPHEMERIS_TYPE": "0",
    "ELEMENT_SET_NO": "999",
    "REV_AT_EPOCH": "70177",
    "BSTAR": "0.000054267",
    "MEAN_MOTION_DOT": "-0.00000049",
    "MEAN_MOTION_DDOT": "0",
    "FILE": "3929193",
    "TLE_LINE0": "0 JASON 2",
    "TLE_LINE1": "1 33105U 08032A   23161.14588462 -.00000049  00000-0  54267-4 0  9998",
    "TLE_LINE2": "2 33105  66.0387 210.2504 0008335 270.0053 112.8324 12.87660054701776",
    "OBJECT_ID": "2008-032A",
    "OBJECT_NUMBER": "33105",
    "SEMIMAJOR_AXIS": "7688.962",
    "PERIOD": "111.831",
    "APOGEE": "1317.235",
    "PERIGEE": "1304.418",
    "DECAYED": "0"
  },
  {
    "COMMENT": "GENERATED VIA SPACETRACK.ORG API",
    "ORIGINATOR": "18 SPCS",
    "NORAD_CAT_ID": "33105",
    "OBJECT_NAME": "JASON 2",
    "OBJECT_TYPE": "PAYLOAD",
    "CLASSIFICATION_TYPE": "U",
    "INTLDES": "08032A",
    "EPOCH": "2023-06-10 13:33:59",
    "EPOCH_MICROSECONDS": "899104",
    "MEAN_MOTION": "12.87660075",
    "ECCENTRICITY": "0.0008339",
    "INCLINATION": "66.0387",
    "RA_OF_ASC_NODE": "209.3686",
    "ARG_OF_PERICENTER": "269.9905",
    "MEAN_ANOMALY": "256.779",
    "EPHEMERIS_TYPE": "0",
    "ELEMENT_SET_NO": "999",
    "REV_AT_EPOCH": "70173",
    "BSTAR": "0.000056183",
    "MEAN_MOTION_DOT": "-0.00000048",
    "MEAN_MOTION_DDOT": "0",
    "FILE": "3929709",
    "TLE_LINE0": "0 JASON 2",
    "TLE_LINE1": "1 33105U 08032A   23161.56527661 -.00000048  00000-0  56183-4 0  9996",
    "TLE_LINE2": "2 33105  66.0387 209.3686 0008339 269.9905 256.7790 12.87660075701737",
    "OBJECT_ID": "2008-032A",
    "OBJECT_NUMBER": "33105",
    "SEMIMAJOR_AXIS": "7688.962",
    "PERIOD": "111.831",
    "APOGEE": "1317.238",
    "PERIGEE": "1304.415",
    "DECAYED": "0"
  },
  {
    "COMMENT": "GENERATED VIA SPACETRACK.ORG API",
    "ORIGINATOR": "18 SPCS",
    "NORAD_CAT_ID": "33105",
    "OBJECT_NAME": "JASON 2",
    "OBJECT_TYPE": "PAYLOAD",
    "CLASSIFICATION_TYPE": "U",
    "INTLDES": "08032A",
    "EPOCH": "2023-06-10 21:03:10",
    "EPOCH_MICROSECONDS": "856736",
    "MEAN_MOTION": "12.8766006",
    "ECCENTRICITY": "0.0008346",
    "INCLINATION": "66.0386",
    "RA_OF_ASC_NODE": "208.7128",
    "ARG_OF_PERICENTER": "269.9868",
    "MEAN_ANOMALY": "262.6264",
    "EPHEMERIS_TYPE": "0",
    "ELEMENT_SET_NO": "999",
    "REV_AT_EPOCH": "70177",
    "BSTAR": "0.000032245",
    "MEAN_MOTION_DOT": "-0.00000054",
    "MEAN_MOTION_DDOT": "0",
    "FILE": "3929969",
    "TLE_LINE0": "0 JASON 2",
    "TLE_LINE1": "1 33105U 08032A   23161.87720899 -.00000054  00000-0  32245-4 0  9998",
    "TLE_LINE2": "2 33105  66.0386 208.7128 0008346 269.9868 262.6264 12.87660060701776",
    "OBJECT_ID": "2008-032A",
    "OBJECT_NUMBER": "33105",
    "SEMIMAJOR_AXIS": "7688.962",
    "PERIOD": "111.831",
    "APOGEE": "1317.244",
    "PERIGEE": "1304.409",
    "DECAYED": "0"
  },
  {
    "COMMENT": "GENERATED VIA SPACETRACK.ORG API",
    "ORIGINATOR": "18 SPCS",
    "NORAD_CAT_ID": "33105",
    "OBJECT_NAME": "JASON 2",
    "OBJECT_TYPE": "PAYLOAD",
    "CLASSIFICATION_TYPE": "U",
    "INTLDES": "08032A",
    "EPOCH": "2023-06-11 09:15:52",
    "EPOCH_MICROSECONDS": "584192",
    "MEAN_MOTION": "12.87660041",
    "ECCENTRICITY": "0.0008342",
    "INCLINATION": "66.0385",
    "RA_OF_ASC_NODE": "207.6429",
    "ARG_OF_PERICENTER": "269.9263",
    "MEAN_ANOMALY": "101.1108",
    "EPHEMERIS_TYPE": "0",
    "ELEMENT_SET_NO": "999",
    "REV_AT_EPOCH": "70184",
    "BSTAR": "0.000014399",
    "MEAN_MOTION_DOT": "-0.00000059",
    "MEAN_MOTION_DDOT": "0",
    "FILE": "3930529",
    "TLE_LINE0": "0 JASON 2",
    "TLE_LINE1": "1 33105U 08032A   23162.38602528 -.00000059  00000-0  14399-4 0  9998",
    "TLE_LINE2": "2 33105  66.0385 207.6429 0008342 269.9263 101.1108 12.87660041701843",
    "OBJECT_ID": "2008-032A",
    "OBJECT_NUMBER": "33105",
    "SEMIMAJOR_AXIS": "7688.962",
    "PERIOD": "111.831",
    "APOGEE": "1317.241",
    "PERIGEE": "1304.413",
    "DECAYED": "0"
  },
  {
    "COMMENT": "GENERATED VIA SPACETRACK.ORG API",
    "ORIGINATOR": "18 SPCS",
    "NORAD_CAT_ID": "33105",
    "OBJECT_NAME": "JASON 2",
    "OBJECT_TYPE": "PAYLOAD",
    "CLASSIFICATION_TYPE": "U",
    "INTLDES": "08032A",
    "EPOCH": "2023-06-11 21:17:26",
    "EPOCH_MICROSECONDS": "23200",
    "MEAN_MOTION": "12.87660038",
    "ECCENTRICITY": "0.0008343",
    "INCLINATION": "66.0385",
    "RA_OF_ASC_NODE": "206.5894",
    "ARG_OF_PERICENTER": "269.9066",
    "MEAN_ANOMALY": "263.7024",
    "EPHEMERIS_TYPE": "0",
    "ELEMENT_SET_NO": "999",
    "REV_AT_EPOCH": "70190",
    "BSTAR": "0.000021744",
    "MEAN_MOTION_DOT": "-0.00000057",
    "MEAN_MOTION_DDOT": "0",
    "FILE": "3930737",
    "TLE_LINE0": "0 JASON 2",
    "TLE_LINE1": "1 33105U 08032A   23162.88710675 -.00000057  00000-0  21744-4 0  9996",
    "TLE_LINE2": "2 33105  66.0385 206.5894 0008343 269.9066 263.7024 12.87660038701904",
    "OBJECT_ID": "2008-032A",
    "OBJECT_NUMBER": "33105",
    "SEMIMAJOR_AXIS": "7688.962",
    "PERIOD": "111.831",
    "APOGEE": "1317.242",
    "PERIGEE": "1304.412",
    "DECAYED": "0"
  }
]